QB50P1                  
1 40025U 14033R   26068.97393773  .00011283  00000+0  58166-3 0  9995
2 40025  98.1009  73.2758 0008366 193.7221 166.3784 15.16526525637986
2021-091B               
1 49316U 21091B   26068.93778848  .00007511  00000+0  37183-3 0  9990
2 49316  97.4480 258.0458 0014268  31.6297 328.5792 15.17988278243920
