[{"OBJECT_NAME":"QB50P1","OBJECT_ID":"2014-033R","EPOCH":"2026-03-09T23:22:28.219872","MEAN_MOTION":15.16526525,"ECCENTRICITY":0.00083666,"INCLINATION":98.1009,"RA_OF_ASC_NODE":73.2758,"ARG_OF_PERICENTER":193.7221,"MEAN_ANOMALY":166.3784,"EPHEMERIS_TYPE":0,"CLASSIFICATION_TYPE":"U","NORAD_CAT_ID":40025,"ELEMENT_SET_NO":999,"REV_AT_EPOCH":63798,"BSTAR":0.00058166231,"MEAN_MOTION_DOT":0.00011283,"MEAN_MOTION_DDOT":0},{"OBJECT_NAME":"OBJECT B","OBJECT_ID":"2021-091B","EPOCH":"2026-03-09T22:30:24.924672","MEAN_MOTION":15.17988278,"ECCENTRICITY":0.00142689,"INCLINATION":97.448,"RA_OF_ASC_NODE":258.0458,"ARG_OF_PERICENTER":31.6297,"MEAN_ANOMALY":328.5792,"EPHEMERIS_TYPE":0,"CLASSIFICATION_TYPE":"U","NORAD_CAT_ID":49316,"ELEMENT_SET_NO":999,"REV_AT_EPOCH":24392,"BSTAR":0.00037182994,"MEAN_MOTION_DOT":7.511e-5,"MEAN_MOTION_DDOT":0}]
